#aV2015 12 16  0  0  0.00000000     288 DD+AD WGS84 FIT  NGA
## 1875 259200.00000000   300.00000000 57372 0.0000000000000
+   31     1  2  3  5  6  7  8  9 10 11 12 13 14 15 16 17 18
+         19 20 21 22 23 24 25 26 27 28 29 30 31 32  0  0  0
+          0  0  0  0  0  0  0  0  0  0  0  0  0  0  0  0  0
+          0  0  0  0  0  0  0  0  0  0  0  0  0  0  0  0  0
+          0  0  0  0  0  0  0  0  0  0  0  0  0  0  0  0  0
++         2  2  2  2  2  2  2  2  2  2  2  2  2  2  2  2  2
++         2  2  2  2  2  2  2  2  2  2  2  2  2  2  0  0  0
++         0  0  0  0  0  0  0  0  0  0  0  0  0  0  0  0  0
++         0  0  0  0  0  0  0  0  0  0  0  0  0  0  0  0  0
++         0  0  0  0  0  0  0  0  0  0  0  0  0  0  0  0  0
%c cc cc ccc ccc cccc cccc cccc cccc ccccc ccccc ccccc ccccc
%c cc cc ccc ccc cccc cccc cccc cccc ccccc ccccc ccccc ccccc
%f  0.0000000  0.000000000  0.00000000000  0.000000000000000
%f  0.0000000  0.000000000  0.00000000000  0.000000000000000
%i    0    0    0    0      0      0      0      0         0
%i    0    0    0    0      0      0      0      0         0
/*      NGA, ST. LOUIS,MO.                                  
/*   EPHEMERIS COMPUTED FROM 2 DAYS OF DATA                 
/*   EPOCHA v2.4 SMOOTHER                                   
/*   G1762 IERS2010 SATAF SATAPC                            
*  2015 12 16 19  5  0.00000000
P  1 -13847.970390  21260.340325   7408.207188      6.806058                    
V  1    913.946739  -9906.501783  30039.175311      0.008890                    
P  2  15983.502800    -86.561829 -20752.413728    597.971770                    
V  2  -8017.272825  26237.649711  -6591.424491      0.006085                    
P  3 -19179.444412  12565.238816 -13418.894302      1.359649                    
V  3 -17183.643930    427.389923  24939.464630     -0.052832                    
P  5  26344.822064  -1586.503811  -3880.548726   -164.439150                    
V  5  -4251.210004   3821.962915 -30784.874754      0.036476                    
P  6   9980.152523  13710.454837 -20442.639762    113.252629                    
V  6 -10139.153780  23906.750267  11071.683452      0.064302                    
P  7  -4461.726153  24834.882974   7756.715497    477.153189                    
V  7  -6218.449910   8005.199453 -30080.741306     -0.012732                    
P  8 -15107.780221   5010.815782  21314.424131    -16.446249                    
V  8 -16598.383357 -21226.802188  -6792.013343     -0.014305                    
P  9   4136.580687  21617.682634 -14875.178831     29.926028                    
V  9 -13636.283205 -13232.412581 -23053.570008      0.080587                    
P 10 -13138.472074 -11927.006473  19782.035769     43.331702                    
V 10  24587.433178  -5176.548058  13169.303310      0.051205                    
P 11 -11497.021229  18850.034499  14167.155808   -622.078044                    
V 11  -3563.124268 -19190.252793  21867.333790     -0.021560                    
P 12  21198.260986 -10289.556648 -12140.098319    353.797270                    
V 12  15378.820040     63.713549  27243.887068      0.029559                    
P 13  18175.039447   5006.695336  18534.884888   -171.816320                    
V 13  11650.986826  20820.870034 -17017.245551     -0.026841                    
P 14 -14544.914148 -22307.936298   1012.058674     15.077064                    
V 14   2651.580893   -640.646415  31722.713511     -0.023766                    
P 15  13726.514350  -8206.219802  21118.403181   -287.501230                    
V 15  18006.361038  20343.007391  -3435.893173     -0.019201                    
P 16 -26427.761175   -487.993912  -4295.230820    -56.806631                    
V 16   5124.342653  -1969.548013 -31545.186742      0.034420                    
P 17  14831.994758  22123.817122   1752.106251   -196.719735                    
V 17  -2833.002542   -176.200284  31826.908990     -0.009890                    
P 18   -945.667325 -16287.071862  21457.251179    463.344479                    
V 18  25865.247573  -4393.160877  -2528.139128      0.038180                    
P 19   8974.016260  23379.414739   7995.127575   -523.786720                    
V 19  -8058.797374  -7317.033121  30030.244048     -0.003411                    
P 20  20484.131909 -13117.001617  10584.087840    378.819445                    
V 20  14135.890763     83.985827 -26780.637325      0.027863                    
P 21   -136.815876 -24221.370112  11253.601156   -499.863926                    
V 21   7480.426103 -11540.402337 -26767.488370     -0.022222                    
P 22 -16900.379357 -10619.277742  17843.255817    419.900767                    
V 22  21521.794541  -6063.125114  16828.229845     -0.023607                    
P 23  -7617.364171  14347.937856 -20770.005741   -150.041607                    
V 23 -17699.848966 -20277.297679  -7884.185749     -0.019948                    
P 24  14714.646381 -19521.992509  10118.034465     -9.416253                    
V 24  -1677.755164  13195.329705  27969.733612     -0.005632                    
P 25   8825.627651 -15057.858900 -20063.969140    -83.892821                    
V 25  25114.353205  -2928.204145  13482.822919     -0.060940                    
P 26 -22018.372238  -6030.517159 -13591.042514   -168.302673                    
V 26  16676.897628  -4954.581963 -24783.803432     -0.174629                    
P 27 -19765.563490  -6110.043972  16710.274879     44.911355                    
V 27 -12177.482580 -17407.515488 -20609.217584      0.033182                    
P 28  11676.057039  12758.036624  20814.660432    488.716514                    
V 28 -24778.631921   2642.081450  12609.416042      0.026962                    
P 29   -714.773570 -20496.460349 -16880.260085    648.522083                    
V 29  13745.418571  16490.504522 -20548.531439      0.014295                    
P 30   3261.931505  20559.717218  16449.242939     71.824975                    
V 30 -10697.922310  18112.548562 -20593.646805      0.051736                    
P 31 -10476.259461 -12021.781788 -21050.582595    291.004545                    
V 31  11289.298756 -24601.628461   8728.497998     -0.016163                    
P 32 -25342.060029   5265.592666  -4567.229748     49.971508                    
V 32  -6078.170155  -3193.474092  31054.385171      0.120327                    
EOF
